ORBCOMM FM37            
1 33064U 08031E   25291.03623012  .00002841  00000+0  39679-3 0  9995
2 33064  48.4372 119.4196 0005486 188.2429 313.9722 14.80259493932246
ORBCOMM FM40            
1 33065U 08031F   25291.02747806  .00004481  00000+0  57599-3 0  9996
2 33065  48.4390 101.3884 0006784 202.4396 307.1011 14.82659568932385
VESSELSAT 1             
1 37840U 11058C   25291.04752589  .00000425  00000+0  86981-4 0  9992
2 37840  19.9622  70.4402 0013718  97.7982 262.3980 14.11380633723688
ORBCOMM FM109           
1 40086U 14040A   25290.89552036  .00001088  00000+0  26885-3 0  9991
2 40086  47.0021 156.6823 0001626 201.1275 158.9543 14.58393278598971
ORBCOMM FM107           
1 40087U 14040B   25291.12327365  .00000934  00000+0  23564-3 0  9994
2 40087  47.0037 156.5195 0000686 137.3169 222.7770 14.58468007599085
ORBCOMM FM106           
1 40088U 14040C   25291.15200381  .00001821  00000+0  33273-3 0  9990
2 40088  47.0614 328.6001 0017699 278.0130  81.8753 14.69794796601569
ORBCOMM FM111           
1 40089U 14040D   25291.07098780  .00004649  00000+0  53143-3 0  9999
2 40089  46.9995 162.3883 0028881  61.3358 299.0438 14.87147810608515
ORBCOMM FM104           
1 40090U 14040E   25291.11022126  .00001082  00000+0  27647-3 0  9995
2 40090  47.0045 191.6769 0016069  44.7099 315.5078 14.56859901598547
